IRIDIUM 57 [-]          
1 25273U 98019B   24097.89149552  .00000323  00000+0  10627-3 0  9997
2 25273  86.3966 328.0029 0002168  87.8594 272.2850 14.35141316362197
IRIDIUM 63 [-]          
1 25286U 98021B   24097.94217392  .00000461  00000+0  15294-3 0  9996
2 25286  86.3935 264.8556 0001891  94.5814 265.5599 14.35667093361235
IRIDIUM 69 [-]          
1 25319U 98026A   24097.94141732  .00000586  00000+0  18025-3 0  9995
2 25319  86.3922 279.4702 0003601  54.0739 306.0793 14.39869979360261
IRIDIUM 71 [-]          
1 25320U 98026B   24097.74872526  .00000534  00000+0  16260-3 0  9999
2 25320  86.3921 274.3231 0004209  88.7486 271.4195 14.40194296360751
IRIDIUM 73 [-]          
1 25344U 98032C   24097.90067458  .00000713  00000+0  17759-3 0  9993
2 25344  86.4435 231.7767 0002399  80.6262 279.5214 14.50397881367293
IRIDIUM 82 [-]          
1 25467U 98051A   24097.86259591  .00010526  00000+0  55241-3 0  9997
2 25467  86.3794 319.5723 0134644 122.0262 239.4139 15.07958623357732
IRIDIUM 2 [-]           
1 25527U 98066A   24097.41931008  .00095233  00000+0  98635-3 0  9993
2 25527  85.5125 349.6662 0002859 127.3629 232.7898 15.64380785396621
